{
  "type": "FeatureCollection",
  "features": [
    {
      "type": "Feature",
      "properties": {
        "norad_id": 37436,
        "name": "FENGYUN 1C DEB",
        "group": "fengyun-1c-debris",
        "lat": 16.091583156507987,
        "lon": -133.28215784990576,
        "alt_km": 832.8164354421051,
        "timestamp": "2025-12-15T15:53:20.139840+00:00",
        "meta_object_name": "FENGYUN 1C DEB",
        "meta_object_id": "1999-025EHE",
        "meta_epoch": "2025-12-08T08:57:07.720992",
        "meta_mean_motion": 14.06336267,
        "meta_eccentricity": 0.00596162,
        "meta_inclination": 98.9375,
        "meta_ra_of_asc_node": 36.9205,
        "meta_arg_of_pericenter": 160.2305,
        "meta_mean_anomaly": 200.1192,
        "meta_ephemeris_type": 0,
        "meta_classification_type": "U",
        "meta_norad_cat_id": 37436,
        "meta_element_set_no": 999,
        "meta_rev_at_epoch": 63937,
        "meta_bstar": 0.0011550832,
        "meta_mean_motion_dot": 1.893e-05,
        "meta_mean_motion_ddot": 0,
        "tle_line1": "1 37436U 99025EHE 25342.37300603  .00001893  00000+0  11551-2 0  9991",
        "tle_line2": "2 37436  98.9375  36.9205 0059616 160.2305 200.1192 14.06336267639376"
      },
      "geometry": {
        "type": "Point",
        "coordinates": [
          -133.28215784990576,
          16.091583156507987
        ]
      }
    },
    {
      "type": "Feature",
      "properties": {
        "norad_id": 37437,
        "name": "FENGYUN 1C DEB",
        "group": "fengyun-1c-debris",
        "lat": -32.33905449995194,
        "lon": 155.96073372943337,
        "alt_km": 916.3706474514684,
        "timestamp": "2025-12-15T15:53:20.139850+00:00",
        "meta_object_name": "FENGYUN 1C DEB",
        "meta_object_id": "1999-025EHF",
        "meta_epoch": "2025-11-30T18:36:25.322976",
        "meta_mean_motion": 14.18810149,
        "meta_eccentricity": 0.0113368,
        "meta_inclination": 98.5859,
        "meta_ra_of_asc_node": 327.0314,
        "meta_arg_of_pericenter": 82.7284,
        "meta_mean_anomaly": 94.5607,
        "meta_ephemeris_type": 0,
        "meta_classification_type": "U",
        "meta_norad_cat_id": 37437,
        "meta_element_set_no": 999,
        "meta_rev_at_epoch": 63821,
        "meta_bstar": 0.0004989187,
        "meta_mean_motion_dot": 1.064e-05,
        "meta_mean_motion_ddot": 0,
        "tle_line1": "1 37437U 99025EHF 25334.77529309  .00001064  00000+0  49892-3 0  9993",
        "tle_line2": "2 37437  98.5859 327.0314 0113368  82.7284  94.5607 14.18810149638211"
      },
      "geometry": {
        "type": "Point",
        "coordinates": [
          155.96073372943337,
          -32.33905449995194
        ]
      }
    },
    {
      "type": "Feature",
      "properties": {
        "norad_id": 37438,
        "name": "FENGYUN 1C DEB",
        "group": "fengyun-1c-debris",
        "lat": -16.57402476032703,
        "lon": -154.03441622855797,
        "alt_km": 825.3787739635154,
        "timestamp": "2025-12-15T15:53:20.139859+00:00",
        "meta_object_name": "FENGYUN 1C DEB",
        "meta_object_id": "1999-025EHG",
        "meta_epoch": "2025-12-09T07:58:39.452448",
        "meta_mean_motion": 14.1550467,
        "meta_eccentricity": 0.00287361,
        "meta_inclination": 98.7401,
        "meta_ra_of_asc_node": 22.3854,
        "meta_arg_of_pericenter": 230.9593,
        "meta_mean_anomaly": 128.9023,
        "meta_ephemeris_type": 0,
        "meta_classification_type": "U",
        "meta_norad_cat_id": 37438,
        "meta_element_set_no": 999,
        "meta_rev_at_epoch": 60087,
        "meta_bstar": 0.001051415,
        "meta_mean_motion_dot": 2.019e-05,
        "meta_mean_motion_ddot": 0,
        "tle_line1": "1 37438U 99025EHG 25343.33240107  .00002019  00000+0  10514-2 0  9991",
        "tle_line2": "2 37438  98.7401  22.3854 0028736 230.9593 128.9023 14.15504670600876"
      },
      "geometry": {
        "type": "Point",
        "coordinates": [
          -154.03441622855797,
          -16.57402476032703
        ]
      }
    },
    {
      "type": "Feature",
      "properties": {
        "norad_id": 37441,
        "name": "FENGYUN 1C DEB",
        "group": "fengyun-1c-debris",
        "lat": 4.318809068730306,
        "lon": 16.82739518903639,
        "alt_km": 1431.9636035094509,
        "timestamp": "2025-12-15T15:53:20.139868+00:00",
        "meta_object_name": "FENGYUN 1C DEB",
        "meta_object_id": "1999-025EHK",
        "meta_epoch": "2025-12-13T19:11:43.754208",
        "meta_mean_motion": 13.14227943,
        "meta_eccentricity": 0.05085046,
        "meta_inclination": 99.1475,
        "meta_ra_of_asc_node": 194.5157,
        "meta_arg_of_pericenter": 52.3048,
        "meta_mean_anomaly": 312.3064,
        "meta_ephemeris_type": 0,
        "meta_classification_type": "U",
        "meta_norad_cat_id": 37441,
        "meta_element_set_no": 999,
        "meta_rev_at_epoch": 82186,
        "meta_bstar": 0.0022389057,
        "meta_mean_motion_dot": 1.559e-05,
        "meta_mean_motion_ddot": 0,
        "tle_line1": "1 37441U 99025EHK 25347.79981197  .00001559  00000+0  22389-2 0  9991",
        "tle_line2": "2 37441  99.1475 194.5157 0508504  52.3048 312.3064 13.14227943821862"
      },
      "geometry": {
        "type": "Point",
        "coordinates": [
          16.82739518903639,
          4.318809068730306
        ]
      }
    },
    {
      "type": "Feature",
      "properties": {
        "norad_id": 37444,
        "name": "FENGYUN 1C DEB",
        "group": "fengyun-1c-debris",
        "lat": -36.93490192622048,
        "lon": 77.31144571963925,
        "alt_km": 572.1975062353258,
        "timestamp": "2025-12-15T15:53:20.139878+00:00",
        "meta_object_name": "FENGYUN 1C DEB",
        "meta_object_id": "1999-025EHN",
        "meta_epoch": "2025-12-14T11:51:44.430336",
        "meta_mean_motion": 14.48048184,
        "meta_eccentricity": 0.02447297,
        "meta_inclination": 99.0832,
        "meta_ra_of_asc_node": 69.1485,
        "meta_arg_of_pericenter": 343.8513,
        "meta_mean_anomaly": 15.4975,
        "meta_ephemeris_type": 0,
        "meta_classification_type": "U",
        "meta_norad_cat_id": 37444,
        "meta_element_set_no": 999,
        "meta_rev_at_epoch": 65176,
        "meta_bstar": 0.00063907585,
        "meta_mean_motion_dot": 3.406e-05,
        "meta_mean_motion_ddot": 0,
        "tle_line1": "1 37444U 99025EHN 25348.49426424  .00003406  00000+0  63908-3 0  9995",
        "tle_line2": "2 37444  99.0832  69.1485 0244729 343.8513  15.4975 14.48048184651761"
      },
      "geometry": {
        "type": "Point",
        "coordinates": [
          77.31144571963925,
          -36.93490192622048
        ]
      }
    },
    {
      "type": "Feature",
      "properties": {
        "norad_id": 37448,
        "name": "FENGYUN 1C DEB",
        "group": "fengyun-1c-debris",
        "lat": -79.22986030800695,
        "lon": 113.96769599413545,
        "alt_km": 1101.9915864874565,
        "timestamp": "2025-12-15T15:53:20.139887+00:00",
        "meta_object_name": "FENGYUN 1C DEB",
        "meta_object_id": "1999-025EHS",
        "meta_epoch": "2025-12-12T22:30:50.536224",
        "meta_mean_motion": 13.87086269,
        "meta_eccentricity": 0.0305972,
        "meta_inclination": 99.321,
        "meta_ra_of_asc_node": 51.5487,
        "meta_arg_of_pericenter": 58.0944,
        "meta_mean_anomaly": 304.9591,
        "meta_ephemeris_type": 0,
        "meta_classification_type": "U",
        "meta_norad_cat_id": 37448,
        "meta_element_set_no": 999,
        "meta_rev_at_epoch": 62378,
        "meta_bstar": 0.0018582025,
        "meta_mean_motion_dot": 3.112e-05,
        "meta_mean_motion_ddot": 0,
        "tle_line1": "1 37448U 99025EHS 25346.93808491  .00003112  00000+0  18582-2 0  9995",
        "tle_line2": "2 37448  99.3210  51.5487 0305972  58.0944 304.9591 13.87086269623785"
      },
      "geometry": {
        "type": "Point",
        "coordinates": [
          113.96769599413545,
          -79.22986030800695
        ]
      }
    },
    {
      "type": "Feature",
      "properties": {
        "norad_id": 37460,
        "name": "FENGYUN 1C DEB",
        "group": "fengyun-1c-debris",
        "lat": 66.6671163821189,
        "lon": 5.488344611542544,
        "alt_km": 765.2390342747531,
        "timestamp": "2025-12-15T15:53:20.139896+00:00",
        "meta_object_name": "FENGYUN 1C DEB",
        "meta_object_id": "1999-025EJE",
        "meta_epoch": "2025-12-08T10:53:05.307360",
        "meta_mean_motion": 14.47840336,
        "meta_eccentricity": 0.00565903,
        "meta_inclination": 98.3779,
        "meta_ra_of_asc_node": 158.3686,
        "meta_arg_of_pericenter": 303.3518,
        "meta_mean_anomaly": 56.2265,
        "meta_ephemeris_type": 0,
        "meta_classification_type": "U",
        "meta_norad_cat_id": 37460,
        "meta_element_set_no": 999,
        "meta_rev_at_epoch": 82427,
        "meta_bstar": 0.0027403859,
        "meta_mean_motion_dot": 0.00010316,
        "meta_mean_motion_ddot": 0,
        "tle_line1": "1 37460U 99025EJE 25342.45353365  .00010316  00000+0  27404-2 0  9994",
        "tle_line2": "2 37460  98.3779 158.3686 0056590 303.3518  56.2265 14.47840336824279"
      },
      "geometry": {
        "type": "Point",
        "coordinates": [
          5.488344611542544,
          66.6671163821189
        ]
      }
    }
  ]
}